GLOBALSTAR M094         
1 39074U 13005C   24122.89500018 -.00000080  00000+0  13501-3 0  9995
2 39074  51.9979 354.3807 0001041  84.6927 275.4059 12.62265157520452
GLOBALSTAR M096         
1 39075U 13005D   24122.51218618 -.00000086  00000+0  10183-3 0  9996
2 39075  52.0092  43.7364 0000997  68.2101 291.8872 12.62264855519300
GLOBALSTAR M078         
1 39076U 13005E   24122.72390558 -.00000101  00000+0  13939-4 0  9995
2 39076  51.9844 128.1665 0001031   5.4948 354.5930 12.62268457517951
GLOBALSTAR M095         
1 39077U 13005F   24122.90785713 -.00000095  00000+0  51175-4 0  9993
2 39077  51.9775 125.0015 0000857  37.0254 323.0671 12.62265874517836
GLOBALSTAR M087         
1 52888U 22064A   24122.93006355 -.00000074  00000+0  10266-3 0  9996
2 52888  51.9776   9.6772 0008652 245.9061 114.0934 13.37571889 91337
